BEIDOU 3 (C01)          
1 36287U 10001A   22213.52093647 -.00000276  00000+0  00000+0 0  9998
2 36287   1.9582  49.3995 0003724  35.4293 193.2587  1.00270051 45969
BEIDOU 5 (C06)          
1 36828U 10036A   22213.60657903 -.00000101  00000+0  00000+0 0  9994
2 36828  54.2006 175.8145 0030705 190.5988 269.2987  1.00285937 44031
BEIDOU 6 (C04)          
1 37210U 10057A   22212.03534922 -.00000111  00000+0  00000+0 0  9995
2 37210   0.9270  52.2301 0005184 132.4632 296.5519  1.00270526 43079
BEIDOU 7 (C07)          
1 37256U 10068A   22213.20598507 -.00000176  00000+0  00000+0 0  9997
2 37256  50.1316 289.1152 0023289 199.1515   2.0039  1.00293237 42595
BEIDOU 8 (C08)          
1 37384U 11013A   22213.28037209 -.00000158  00000+0  00000+0 0  9995
2 37384  60.3577  53.8114 0022688 177.0860 285.8192  1.00295477 41478
BEIDOU 9 (C09)          
1 37763U 11038A   22213.21596303 -.00000059  00000+0  00000+0 0  9991
2 37763  54.4846 178.3154 0098938 228.3776  76.5833  1.00271615 40447
BEIDOU 10 (C10)         
1 37948U 11073A   22212.58696248 -.00000130  00000+0  00000+0 0  9993
2 37948  50.2496 288.7652 0085000 218.2843 108.8824  1.00284435 39198
BEIDOU 11 (C05)         
1 38091U 12008A   22213.50467980  .00000062  00000+0  00000+0 0  9997
2 38091   1.6597  68.8507 0013621 342.1824 139.3987  1.00271342 38283
BEIDOU 12 (C11)         
1 38250U 12018A   22212.90960568 -.00000079  00000+0  00000+0 0  9997
2 38250  56.6818 352.0914 0020779 250.0441 246.5047  1.86234277 69912
BEIDOU 13 (C12)         
1 38251U 12018B   22212.63938340 -.00000080  00000+0  00000+0 0  9993
2 38251  56.5987 351.4226 0011549 249.9296 109.6415  1.86234099 69907
BEIDOU 15 (C14)         
1 38775U 12050B   22212.54397988 -.00000003  00000+0  00000+0 0  9992
2 38775  55.4247 110.2016 0014002 328.3044 163.4004  1.86231376 67289
BEIDOU 16 (C02)         
1 38953U 12059A   22213.50968764 -.00000172  00000+0  00000+0 0  9999
2 38953   2.0960  84.2190 0010365 305.6439 187.7687  1.00274274 35858
BEIDOU 17 (C31)         
1 40549U 15019A   22213.20672809 -.00000166  00000+0  00000+0 0  9994
2 40549  51.8105 312.2378 0037548 194.4589 332.1747  1.00287859 26888
BEIDOU 18 (C57)         
1 40748U 15037A   22213.02391927 -.00000080  00000+0  00000+0 0  9999
2 40748  55.8508 350.2485 0003590  57.6224 109.1276  1.86233344 47748
BEIDOU 19 (C58)         
1 40749U 15037B   22212.56460439 -.00000082  00000+0  00000+0 0  9995
2 40749  55.8540 350.2544 0002505 352.8059   0.3282  1.86232187 47723
BEIDOU 20 (C18)         
1 40938U 15053A   22213.49260628 -.00000106  00000+0  00000+0 0  9991
2 40938  51.4294 275.3576 0046073 198.4732 109.6845  1.00282963 25157
BEIDOU IGSO-6 (C13)     
1 41434U 16021A   22213.51230365 -.00000139  00000+0  00000+0 0  9993
2 41434  58.1646  52.3663 0043850 215.8453 322.5094  1.00274352 23285
BEIDOU-2 G7 (C03)       
1 41586U 16037A   22213.57503571 -.00000349  00000+0  00000+0 0  9999
2 41586   1.4695  66.6815 0008219   1.0273 199.9682  1.00267621 22582
BEIDOU-3 M1 (C19)       
1 43001U 17069A   22213.45715559 -.00000001  00000+0  00000+0 0  9992
2 43001  55.5778 110.1772 0010083 298.0114 242.2467  1.86231801 32230
BEIDOU-3 M2 (C20)       
1 43002U 17069B   22213.39001399 -.00000001  00000+0  00000+0 0  9996
2 43002  55.5761 110.2150 0008615 320.7464 217.4563  1.86231337 32227
BEIDOU-3 M3 (C27)       
1 43107U 18003A   22213.06455117 -.00000081  00000+0  00000+0 0  9994
2 43107  55.3020 351.1449 0005129  68.0115  58.1756  1.86232510 30987
BEIDOU-3 M4 (C28)       
1 43108U 18003B   22213.01972714 -.00000081  00000+0  00000+0 0  9997
2 43108  55.2947 351.1353 0002229 231.5857 268.1889  1.86230912 30981
BEIDOU-3 M5 (C21)       
1 43207U 18018A   22212.18222508 -.00000004  00000+0  00000+0 0  9994
2 43207  55.5355 110.3328 0006399 344.1236  15.9125  1.86231689 30352
BEIDOU-3 M6 (C22)       
1 43208U 18018B   22212.24888868 -.00000003  00000+0  00000+0 0  9998
2 43208  55.5354 110.3350 0007922 311.1563  48.8286  1.86231773 30354
BEIDOU-3 M7 (C29)       
1 43245U 18029A   22212.41849906 -.00000083  00000+0  00000+0 0  9998
2 43245  55.2136 348.9332 0001024 111.4836 212.0102  1.86232671 29505
BEIDOU-3 M8 (C30)       
1 43246U 18029B   22213.47661958 -.00000079  00000+0  10000-3 0  9995
2 43246  55.2107 348.9265 0003559  15.0293 344.4540  1.86232900 29512
BEIDOU IGSO-7 (C16)     
1 43539U 18057A   22212.89456288 -.00000111  00000+0  00000+0 0  9996
2 43539  55.0933 175.3379 0052898 229.1081 338.4771  1.00297136 14952
BEIDOU-3 M9 (C23)       
1 43581U 18062A   22211.82618782  .00000066  00000+0  00000+0 0  9998
2 43581  54.2655 230.6003 0005772 269.1080 274.9711  1.86231906 27232
BEIDOU-3 M10 (C24)      
1 43582U 18062B   22213.02489373  .00000071  00000+0  00000+0 0  9991
2 43582  54.2648 230.5474 0004671 334.9686  24.6131  1.86232451 27250
BEIDOU-3 M11 (C25)      
1 43602U 18067A   22213.51471738  .00000075  00000+0  00000+0 0  9993
2 43602  54.3475 229.1499 0006527 359.8631   9.4621  1.86231811 26760
BEIDOU-3 M12 (C26)      
1 43603U 18067B   22211.66390282  .00000066  00000+0  00000+0 0  9992
2 43603  54.3446 229.1795 0003968 341.8347 136.9616  1.86231612 26746
BEIDOU-3 M13 (C32)      
1 43622U 18072A   22213.07691458 -.00000002  00000+0  00000+0 0  9996
2 43622  55.5038 109.8562 0006572 296.4402  78.8787  1.86231874 26286
BEIDOU-3 M14 (C33)      
1 43623U 18072B   22213.00217624 -.00000002  00000+0  00000+0 0  9999
2 43623  55.5060 109.8502 0005275 323.6799  91.7686  1.86231836 26287
BEIDOU-3 M15 (C34)      
1 43647U 18078A   22211.46105456 -.00000088  00000+0  10000-3 0  9997
2 43647  55.1092 349.1210 0005815  15.3096 342.4854  1.86233173 25754
BEIDOU-3 M16 (C35)      
1 43648U 18078B   22212.59631432 -.00000083  00000+0  00000+0 0  9991
2 43648  55.1049 349.0877 0004194  32.6964 273.9403  1.86232289 25799
BEIDOU-3 G1 (C59)       
1 43683U 18085A   22212.84007788 -.00000276  00000+0  00000+0 0  9991
2 43683   0.9345 158.9121 0004535  12.4644 220.4270  1.00266748 13850
BEIDOU-3 M17 (C36)      
1 43706U 18093A   22213.36387012  .00000073  00000+0  00000+0 0  9999
2 43706  54.3479 230.4352 0011316 272.8248  87.0855  1.86232004 25150
BEIDOU-3 M18 (C37)      
1 43707U 18093B   22213.39827193  .00000073  00000+0  00000+0 0  9992
2 43707  54.3473 230.4248 0009159 293.7435 180.4820  1.86232210 25161
BEIDOU-3 IGSO-1 (C38)   
1 44204U 19023A   22213.45813206 -.00000197  00000+0  00000+0 0  9994
2 44204  56.6206  52.4885 0022639 188.4405 351.4194  1.00296818 12167
BEIDOU-2 G8             
1 44231U 19027A   22213.26297340 -.00000243  00000+0  00000+0 0  9994
2 44231   0.9659  77.8478 0005381 111.6063 359.6072  1.00270794 11870
BEIDOU-3 IGSO-2 (C39)   
1 44337U 19035A   22212.81368795 -.00000120  00000+0  00000+0 0  9997
2 44337  55.1290 171.3300 0025957 194.5061 354.5598  1.00291331 11498
BEIDOU-3 M23 (C45)      
1 44542U 19061A   22213.29994679  .00000073  00000+0  00000+0 0  9999
2 44542  54.5741 230.5879 0008511 324.1869  35.7965  1.86231403 19428
BEIDOU-3 M24 (C46)      
1 44543U 19061B   22213.46938590  .00000074  00000+0  00000+0 0  9990
2 44543  54.5713 230.5523 0006114 307.6030  77.3456  1.86231693 19425
BEIDOU-3 IGSO-3         
1 44709U 19073A   22213.19782535 -.00000169  00000+0  10000-3 0  9994
2 44709  57.1925 295.9221 0027484 178.2674  24.6560  1.00295185 10246
BEIDOU-3 M21            
1 44793U 19078A   22210.99115163 -.00000091  00000+0  10000-3 0  9998
2 44793  54.9587 349.1539 0006056  23.1991 333.3643  1.86232277 18230
BEIDOU-3 M22            
1 44794U 19078B   22213.27260106 -.00000081  00000+0  00000+0 0  9995
2 44794  54.9308 349.0655 0003839  23.0274 334.8840  1.86232741 18274
BEIDOU-3 M19            
1 44864U 19090A   22213.24078065 -.00000001  00000+0  00000+0 0  9997
2 44864  55.4388 110.0590 0016814 274.0707 256.9415  1.86231991 17868
BEIDOU-3 M20            
1 44865U 19090B   22213.60370688 -.00000001  00000+0  00000+0 0  9994
2 44865  55.4410 110.0790 0015121 288.6527 215.5447  1.86231955 17842
BEIDOU-3 G2             
1 45344U 20017A   22213.15016118 -.00000135  00000+0  00000+0 0  9991
2 45344   2.0393 354.2263 0004931 128.4423 321.1896  1.00272142  9070
BEIDOU-3 G3             
1 45807U 20040A   22213.12055226 -.00000349  00000+0  00000+0 0  9998
2 45807   1.3435 304.4182 0006774 334.6415 184.4860  1.00278888  7880
